ONEWEB-0199             
1 48234U 21031AA  24353.11634622  .00000262  00000+0  67283-3 0  9998
2 48234  87.9008  38.2806 0001779  91.9662 268.1671 13.14501532176526
ONEWEB-0203             
1 48235U 21031AB  24353.18295494  .00000095  00000+0  22148-3 0  9991
2 48235  87.9003  38.2692 0001410  91.1580 268.9711 13.14503394176541
ONEWEB-0197             
1 48236U 21031AC  24353.15836866 -.00000238  00000+0 -67737-3 0  9997
2 48236  87.9005  38.2841 0002097  94.7810 265.3560 13.14503905176458
ONEWEB-0194             
1 48237U 21031AD  24353.36532259  .00000183  00000+0  45802-3 0  9996
2 48237  87.9006  38.2377 0001621  90.4201 269.7115 13.14503231176651
ONEWEB-0191             
1 48239U 21031AF  24353.39226522 -.00000138  00000+0 -40680-3 0  9995
2 48239  87.9005  38.2185 0001680 100.3114 259.8205 13.14504390176464
ONEWEB-0195             
1 48240U 21031AG  24353.36927010  .00000070  00000+0  15364-3 0  9998
2 48240  87.9004  38.2215 0001679 113.0195 247.1112 13.14502465176443
ONEWEB-0201             
1 48241U 21031AH  24353.35818535  .00000251  00000+0  64289-3 0  9990
2 48241  87.9006  38.2643 0001810 104.1150 256.0181 13.14502362176676
